KSLV-II R/B             
1 66663U 25274P   25347.29297290  .00010032  00000+0  84493-3 0  9994
2 66663  97.7409 274.6318 0053093 318.2344  41.4831 14.97306157  2490
SOYUZ-MS 28             
1 66664U 25275A   25347.12152100  .00016130  00000+0  29450-3 0  9995
2 66664  51.6303 140.5889 0003238 241.9684 118.0978 15.49559837  1284
STARLINK-35867          
1 66791U 25278A   25347.11304557  .01185379  00000+0  37632-2 0  9996
2 66791  42.9975 249.8307 0008424 305.9472  54.0620 15.87980297  1899
STARLINK-35990          
1 66792U 25278B   25347.04958061  .02531554  00000+0  72177-2 0  9998
2 66792  42.9971 250.2153 0004280 252.2760 107.7648 15.89439223  1886
STARLINK-36051          
1 66793U 25278C   25347.11210378  .00173870  00000+0  65309-3 0  9990
2 66793  42.9972 249.8217 0003434 288.9271  71.1230 15.86562900  1894
STARLINK-36062          
1 66794U 25278D   25347.04953291  .00090856  00000+0  34305-3 0  9995
2 66794  42.9970 250.2156 0005352 311.2550  48.7862 15.86697722  1883
STARLINK-36047          
1 66795U 25278E   25347.11162470  .00133034  00000+0  50264-3 0  9993
2 66795  42.9975 249.8190 0003742 290.0872  69.9598 15.86556765  1896
STARLINK-35964          
1 66796U 25278F   25347.17885688 -.00809252  22177-3 -15645-2 0  9993
2 66796  42.9949 248.5513 0004242 246.4999 113.5434 15.99418143  1913
STARLINK-36099          
1 66797U 25278G   25347.11065824  .00224629  00000+0  83695-3 0  9995
2 66797  42.9983 249.8093 0003829 302.0122  58.0379 15.86593561  1898
STARLINK-36041          
1 66798U 25278H   25347.11030115  .00319266  00000+0  11741-2 0  9995
2 66798  42.9978 249.8079 0003563 326.4211  33.6436 15.86626076  1892
STARLINK-36044          
1 66799U 25278J   25347.10989221  .00103659  00000+0  39337-3 0  9995
2 66799  42.9970 249.8048 0003829 343.7297  16.3453 15.86559608  1895
STARLINK-35996          
1 66800U 25278K   25347.10906533  .00070265  00000+0  26818-3 0  9999
2 66800  42.9972 249.7977 0003260 292.0584  67.9943 15.86576261  1894
