CCSDS_OMM_VERS = 2.0
CREATION_DATE  = 
ORIGINATOR     = 

OBJECT_NAME    = KSLV-II R/B
OBJECT_ID      = 2025-274P
CENTER_NAME    = EARTH
REF_FRAME      = TEME
TIME_SYSTEM    = UTC
MEAN_ELEMENT_THEORY = SGP/SGP4

EPOCH          = 2025-12-13T07:01:52.858560
MEAN_MOTION    = 14.97306157
ECCENTRICITY   = .00530932
INCLINATION    = 97.7409
RA_OF_ASC_NODE = 274.6318
ARG_OF_PERICENTER = 318.2344
MEAN_ANOMALY   = 41.4831

EPHEMERIS_TYPE = 0
CLASSIFICATION_TYPE = U
NORAD_CAT_ID   = 66663
ELEMENT_SET_NO = 999
REV_AT_EPOCH   = 249
BSTAR          = .84492735E-3
MEAN_MOTION_DOT = .10032E-3
MEAN_MOTION_DDOT = 0

CCSDS_OMM_VERS = 2.0
CREATION_DATE  = 
ORIGINATOR     = 

OBJECT_NAME    = SOYUZ-MS 28
OBJECT_ID      = 2025-275A
CENTER_NAME    = EARTH
REF_FRAME      = TEME
TIME_SYSTEM    = UTC
MEAN_ELEMENT_THEORY = SGP/SGP4

EPOCH          = 2025-12-13T02:54:59.414400
MEAN_MOTION    = 15.49559837
ECCENTRICITY   = .00032382
INCLINATION    = 51.6303
RA_OF_ASC_NODE = 140.5889
ARG_OF_PERICENTER = 241.9684
MEAN_ANOMALY   = 118.0978

EPHEMERIS_TYPE = 0
CLASSIFICATION_TYPE = U
NORAD_CAT_ID   = 66664
ELEMENT_SET_NO = 999
REV_AT_EPOCH   = 128
BSTAR          = .29450217E-3
MEAN_MOTION_DOT = .1613E-3
MEAN_MOTION_DDOT = 0

CCSDS_OMM_VERS = 2.0
CREATION_DATE  = 
ORIGINATOR     = 

OBJECT_NAME    = STARLINK-35867
OBJECT_ID      = 2025-278A
CENTER_NAME    = EARTH
REF_FRAME      = TEME
TIME_SYSTEM    = UTC
MEAN_ELEMENT_THEORY = SGP/SGP4

EPOCH          = 2025-12-13T02:42:47.137248
MEAN_MOTION    = 15.87980297
ECCENTRICITY   = .00084245
INCLINATION    = 42.9975
RA_OF_ASC_NODE = 249.8307
ARG_OF_PERICENTER = 305.9472
MEAN_ANOMALY   = 54.0620

EPHEMERIS_TYPE = 0
CLASSIFICATION_TYPE = U
NORAD_CAT_ID   = 66791
ELEMENT_SET_NO = 999
REV_AT_EPOCH   = 189
BSTAR          = .37631639E-2
MEAN_MOTION_DOT = .1185379E-1
MEAN_MOTION_DDOT = 0

CCSDS_OMM_VERS = 2.0
CREATION_DATE  = 
ORIGINATOR     = 

OBJECT_NAME    = STARLINK-35990
OBJECT_ID      = 2025-278B
CENTER_NAME    = EARTH
REF_FRAME      = TEME
TIME_SYSTEM    = UTC
MEAN_ELEMENT_THEORY = SGP/SGP4

EPOCH          = 2025-12-13T01:11:23.764704
MEAN_MOTION    = 15.89439223
ECCENTRICITY   = .00042805
INCLINATION    = 42.9971
RA_OF_ASC_NODE = 250.2153
ARG_OF_PERICENTER = 252.2760
MEAN_ANOMALY   = 107.7648

EPHEMERIS_TYPE = 0
CLASSIFICATION_TYPE = U
NORAD_CAT_ID   = 66792
ELEMENT_SET_NO = 999
REV_AT_EPOCH   = 188
BSTAR          = .72177431E-2
MEAN_MOTION_DOT = .2531554E-1
MEAN_MOTION_DDOT = 0

CCSDS_OMM_VERS = 2.0
CREATION_DATE  = 
ORIGINATOR     = 

OBJECT_NAME    = STARLINK-36051
OBJECT_ID      = 2025-278C
CENTER_NAME    = EARTH
REF_FRAME      = TEME
TIME_SYSTEM    = UTC
MEAN_ELEMENT_THEORY = SGP/SGP4

EPOCH          = 2025-12-13T02:41:25.766592
MEAN_MOTION    = 15.86562900
ECCENTRICITY   = .0003434
INCLINATION    = 42.9972
RA_OF_ASC_NODE = 249.8217
ARG_OF_PERICENTER = 288.9271
MEAN_ANOMALY   = 71.1230

EPHEMERIS_TYPE = 0
CLASSIFICATION_TYPE = U
NORAD_CAT_ID   = 66793
ELEMENT_SET_NO = 999
REV_AT_EPOCH   = 189
BSTAR          = .6530861E-3
MEAN_MOTION_DOT = .17387E-2
MEAN_MOTION_DDOT = 0

CCSDS_OMM_VERS = 2.0
CREATION_DATE  = 
ORIGINATOR     = 

OBJECT_NAME    = STARLINK-36062
OBJECT_ID      = 2025-278D
CENTER_NAME    = EARTH
REF_FRAME      = TEME
TIME_SYSTEM    = UTC
MEAN_ELEMENT_THEORY = SGP/SGP4

EPOCH          = 2025-12-13T01:11:19.643424
MEAN_MOTION    = 15.86697722
ECCENTRICITY   = .00053521
INCLINATION    = 42.9970
RA_OF_ASC_NODE = 250.2156
ARG_OF_PERICENTER = 311.2550
MEAN_ANOMALY   = 48.7862

EPHEMERIS_TYPE = 0
CLASSIFICATION_TYPE = U
NORAD_CAT_ID   = 66794
ELEMENT_SET_NO = 999
REV_AT_EPOCH   = 188
BSTAR          = .34305241E-3
MEAN_MOTION_DOT = .90856E-3
MEAN_MOTION_DDOT = 0

CCSDS_OMM_VERS = 2.0
CREATION_DATE  = 
ORIGINATOR     = 

OBJECT_NAME    = STARLINK-36047
OBJECT_ID      = 2025-278E
CENTER_NAME    = EARTH
REF_FRAME      = TEME
TIME_SYSTEM    = UTC
MEAN_ELEMENT_THEORY = SGP/SGP4

EPOCH          = 2025-12-13T02:40:44.374080
MEAN_MOTION    = 15.86556765
ECCENTRICITY   = .00037426
INCLINATION    = 42.9975
RA_OF_ASC_NODE = 249.8190
ARG_OF_PERICENTER = 290.0872
MEAN_ANOMALY   = 69.9598

EPHEMERIS_TYPE = 0
CLASSIFICATION_TYPE = U
NORAD_CAT_ID   = 66795
ELEMENT_SET_NO = 999
REV_AT_EPOCH   = 189
BSTAR          = .50264133E-3
MEAN_MOTION_DOT = .133034E-2
MEAN_MOTION_DDOT = 0

CCSDS_OMM_VERS = 2.0
CREATION_DATE  = 
ORIGINATOR     = 

OBJECT_NAME    = STARLINK-35964
OBJECT_ID      = 2025-278F
CENTER_NAME    = EARTH
REF_FRAME      = TEME
TIME_SYSTEM    = UTC
MEAN_ELEMENT_THEORY = SGP/SGP4

EPOCH          = 2025-12-13T04:17:33.234432
MEAN_MOTION    = 15.99418143
ECCENTRICITY   = .00042425
INCLINATION    = 42.9949
RA_OF_ASC_NODE = 248.5513
ARG_OF_PERICENTER = 246.4999
MEAN_ANOMALY   = 113.5434

EPHEMERIS_TYPE = 0
CLASSIFICATION_TYPE = U
NORAD_CAT_ID   = 66796
ELEMENT_SET_NO = 999
REV_AT_EPOCH   = 191
BSTAR          = -.15645026E-2
MEAN_MOTION_DOT = -.809252E-2
MEAN_MOTION_DDOT = .22176829E-3

CCSDS_OMM_VERS = 2.0
CREATION_DATE  = 
ORIGINATOR     = 

OBJECT_NAME    = STARLINK-36099
OBJECT_ID      = 2025-278G
CENTER_NAME    = EARTH
REF_FRAME      = TEME
TIME_SYSTEM    = UTC
MEAN_ELEMENT_THEORY = SGP/SGP4

EPOCH          = 2025-12-13T02:39:20.871936
MEAN_MOTION    = 15.86593561
ECCENTRICITY   = .00038292
INCLINATION    = 42.9983
RA_OF_ASC_NODE = 249.8093
ARG_OF_PERICENTER = 302.0122
MEAN_ANOMALY   = 58.0379

EPHEMERIS_TYPE = 0
CLASSIFICATION_TYPE = U
NORAD_CAT_ID   = 66797
ELEMENT_SET_NO = 999
REV_AT_EPOCH   = 189
BSTAR          = .8369452E-3
MEAN_MOTION_DOT = .224629E-2
MEAN_MOTION_DDOT = 0

CCSDS_OMM_VERS = 2.0
CREATION_DATE  = 
ORIGINATOR     = 

OBJECT_NAME    = STARLINK-36041
OBJECT_ID      = 2025-278H
CENTER_NAME    = EARTH
REF_FRAME      = TEME
TIME_SYSTEM    = UTC
MEAN_ELEMENT_THEORY = SGP/SGP4

EPOCH          = 2025-12-13T02:38:50.019360
MEAN_MOTION    = 15.86626076
ECCENTRICITY   = .00035632
INCLINATION    = 42.9978
RA_OF_ASC_NODE = 249.8079
ARG_OF_PERICENTER = 326.4211
MEAN_ANOMALY   = 33.6436

EPHEMERIS_TYPE = 0
CLASSIFICATION_TYPE = U
NORAD_CAT_ID   = 66798
ELEMENT_SET_NO = 999
REV_AT_EPOCH   = 189
BSTAR          = .11741183E-2
MEAN_MOTION_DOT = .319266E-2
MEAN_MOTION_DDOT = 0

CCSDS_OMM_VERS = 2.0
CREATION_DATE  = 
ORIGINATOR     = 

OBJECT_NAME    = STARLINK-36044
OBJECT_ID      = 2025-278J
CENTER_NAME    = EARTH
REF_FRAME      = TEME
TIME_SYSTEM    = UTC
MEAN_ELEMENT_THEORY = SGP/SGP4

EPOCH          = 2025-12-13T02:38:14.686944
MEAN_MOTION    = 15.86559608
ECCENTRICITY   = .00038293
INCLINATION    = 42.9970
RA_OF_ASC_NODE = 249.8048
ARG_OF_PERICENTER = 343.7297
MEAN_ANOMALY   = 16.3453

EPHEMERIS_TYPE = 0
CLASSIFICATION_TYPE = U
NORAD_CAT_ID   = 66799
ELEMENT_SET_NO = 999
REV_AT_EPOCH   = 189
BSTAR          = .39337401E-3
MEAN_MOTION_DOT = .103659E-2
MEAN_MOTION_DDOT = 0

CCSDS_OMM_VERS = 2.0
CREATION_DATE  = 
ORIGINATOR     = 

OBJECT_NAME    = STARLINK-35996
OBJECT_ID      = 2025-278K
CENTER_NAME    = EARTH
REF_FRAME      = TEME
TIME_SYSTEM    = UTC
MEAN_ELEMENT_THEORY = SGP/SGP4

EPOCH          = 2025-12-13T02:37:03.244512
MEAN_MOTION    = 15.86576261
ECCENTRICITY   = .00032606
INCLINATION    = 42.9972
RA_OF_ASC_NODE = 249.7977
ARG_OF_PERICENTER = 292.0584
MEAN_ANOMALY   = 67.9943

EPHEMERIS_TYPE = 0
CLASSIFICATION_TYPE = U
NORAD_CAT_ID   = 66800
ELEMENT_SET_NO = 999
REV_AT_EPOCH   = 189
BSTAR          = .26817982E-3
MEAN_MOTION_DOT = .70265E-3
MEAN_MOTION_DDOT = 0

